O3B FM20                
1 44112U 19020A   26065.26833099 -.00000026  00000+0  00000+0 0  9990
2 44112   0.0518 359.6916 0002799 333.6749  26.6137  5.00115505126421
O3B FM19                
1 44113U 19020B   26058.89895873 -.00000027  00000+0  00000+0 0  9991
2 44113   0.0602 347.5601 0004795 353.9797  18.4356  5.00116325125971
O3B FM17                
1 44114U 19020C   26065.57539843 -.00000026  00000+0  00000+0 0  9996
2 44114   0.0391 340.3538 0002682   0.1181  19.5126  5.00115478126389
O3B FM18                
1 44115U 19020D   26062.52332968 -.00000028  00000+0  00000+0 0  9990
2 44115   0.0519   0.0145 0002751 341.7220  18.2467  5.00115242126362
SALSAT                  
1 46495U 20068K   26065.39904136  .00011274  00000+0  41380-3 0  9991
2 46495  97.8855  62.3380 0008503 310.6744  49.3754 15.28102969299651
O3B MPOWER F1           
1 54755U 22174A   26065.47410298 -.00000026  00000+0  00000+0 0  9993
2 54755   0.0639 350.8324 0005195  11.1049 132.3969  5.00103106 60226
O3B MPOWER F2           
1 54756U 22174B   26062.53384886 -.00000028  00000+0  00000+0 0  9993
2 54756   0.1272 326.2177 0046125  76.0907 318.0389  5.00690325 60150
O3B MPOWER F4           
1 56367U 23059A   26048.24074746 -.00000015  00000+0  00000+0 0  9995
2 56367   0.0593   7.9241 0006460 334.3658  17.6828  5.00119607 52601
